{
  "type": "FeatureCollection",
  "features": [
    {
      "type": "Feature",
      "id": "ams",
      "properties": {"name": "Amsterdam", "pop": 900000, "country": "NL"},
      "geometry": {"type": "Point", "coordinates": [4.9041, 52.3676]}
    },
    {
      "type": "Feature",
      "id": "rot",
      "properties": {"name": "Rotterdam", "pop": 650000, "country": "NL"},
      "geometry": {"type": "Point", "coordinates": [4.4777, 51.9244]}
    },
    {
      "type": "Feature",
      "id": "region",
      "properties": {"name": "Randstad-box", "pop": 0, "country": "NL"},
      "geometry": {
        "type": "Polygon",
        "coordinates": [
          [
            [4.0, 51.5],
            [5.5, 51.5],
            [5.5, 52.8],
            [4.0, 52.8],
            [4.0, 51.5]
          ]
        ]
      }
    }
  ]
}
